STARLINK-35999          
1 66951U 25286AC  25354.58336806 -.01795863  00000+0 -12947-1 0  9992
2 66951  53.1558  10.9543 0001030  79.9579 299.6383 15.75931740  3250
STARLINK-36122          
1 66952U 25286AD  25354.58336806 -.01511712  00000+0 -10916-1 0  9996
2 66952  53.1562  10.9627 0000895  65.3593 310.2550 15.75866988  3259
HULIANWANG DIGUI-114    
1 66953U 25287A   25354.38141962  .00000019  00000+0  30336-5 0  9995
2 66953  86.4960 343.3747 0009673 185.0352 175.0710 13.66161866  1572
HULIANWANG DIGUI-115    
1 66954U 25287B   25354.59996245  .00000016  00000+0 -97933-6 0  9996
2 66954  86.4975 343.2967 0009498 182.0064 178.1058 13.66603826  1604
HULIANWANG DIGUI-116    
1 66955U 25287C   25354.59867491  .00000120  00000+0  12404-3 0  9999
2 66955  86.4919 343.2828 0008639 174.3089 185.8169 13.67009346  1602
HULIANWANG DIGUI-117    
1 66956U 25287D   25352.62166759  .00000026  00000+0  10922-4 0  9990
2 66956  86.4971 344.0126 0007676 176.3616 183.7600 13.67770338  1332
HULIANWANG DIGUI-118    
1 66957U 25287E   25354.59589027  .00000120  00000+0  12214-3 0  9996
2 66957  86.4951 343.2906 0007828 167.9951 192.1396 13.67845038  1601
CZ-6A R/B               
1 66958U 25287F   25354.59352767  .00000064  00000+0  32008-4 0  9997
2 66958  86.5061 343.1148 0107270  78.5459 282.7739 13.94920926  1634
STARLINK-35887          
1 66959U 25288A   25354.58336806 -.01315568  00000+0 -76542-2 0  9994
2 66959  43.0012 119.1470 0001618 281.2067 175.7021 15.80446704  3096
STARLINK-35879          
1 66960U 25288B   25354.58336806 -.01345512  00000+0 -76856-2 0  9996
2 66960  43.0008 119.1423 0001532 277.9387 180.9309 15.80453789  3091
STARLINK-35761          
1 66961U 25288C   25354.58336806 -.01351118  00000+0 -77251-2 0  9996
2 66961  43.0011 119.1369 0001417 284.4348 176.5056 15.80444701  3091
STARLINK-35874          
1 66962U 25288D   25354.58336806 -.01362032  00000+0 -78140-2 0  9992
2 66962  43.0008 119.1308 0001543 273.8779 189.5597 15.80390995  3090
